     2.100          NAVIGATION                              RINEX VERSION / TYPE
fic2rin                                 07/03/2009 02:04:07 PGM / RUN BY / DATE
                                                            END OF HEADER
 6 09  7  2  1 59 44.0  .179651193321D-03  .119371179608D-10  .000000000000D+00
     .300000000000D+01 -.671875000000D+01  .553273046043D-08 -.163883597372D+01
    -.201165676117D-06  .598470016848D-02  .671483576298D-05  .515369520950D+04
     .352784000000D+06 -.117346644402D-06 -.211752039157D+01  .162050127983D-06
     .933613246316D+00  .236718750000D+03 -.132553441986D+01 -.836034824206D-08
    -.136791412197D-09  .100000000000D+01  .153800000000D+04  .000000000000D+00
     .240000000000D+01  .000000000000D+00 -.465661287308D-08  .300000000000D+01
     .347886000000D+06  .400000000000D+01
 8 09  7  2  1 59 28.0 -.209961552173D-03 -.147792889038D-11  .000000000000D+00
     .190000000000D+02 -.851875000000D+02  .370408286135D-08  .134925620559D+00
    -.434741377831D-05  .106844361871D-01  .880099833012D-05  .515364288712D+04
     .352768000000D+06  .137835741043D-06  .217979040077D+01 -.111758708954D-07
     .989054637730D+00  .223625000000D+03  .299647862784D+01 -.777318092704D-08
     .265368196508D-09  .100000000000D+01  .153800000000D+04  .000000000000D+00
     .240000000000D+01  .000000000000D+00 -.372529029846D-08  .190000000000D+02
     .349206000000D+06  .400000000000D+01
 9 09  7  2  1 59 44.0  .642258673906D-04  .204636307899D-11  .000000000000D+00
     .110000000000D+02 -.779062500000D+02  .407016953890D-08 -.104205498063D+00
    -.427290797234D-05  .207016353961D-01  .800378620625D-05  .515363316727D+04
     .352784000000D+06 -.318512320518D-06  .208492394058D+01  .106170773506D-06
     .976699561629D+00  .240312500000D+03  .148813281093D+01 -.813676750046D-08
     .185722021782D-09  .100000000000D+01  .153800000000D+04  .000000000000D+00
     .240000000000D+01  .000000000000D+00 -.558793544769D-08  .110000000000D+02
     .350106000000D+06  .400000000000D+01
17 09  7  2  1 59 44.0  .678119249642D-04  .227373675443D-11  .000000000000D+00
     .700000000000D+01 -.903125000000D+01  .493877714846D-08 -.270243086360D+01
    -.445172190666D-06  .455555343069D-02  .678747892380D-05  .515369408989D+04
     .352784000000D+06 -.186264514923D-08 -.205325222791D+01 -.171363353729D-06
     .959487732092D+00  .245812500000D+03 -.263243187782D+01 -.803212028434D-08
    -.244653047924D-09  .100000000000D+01  .153800000000D+04  .000000000000D+00
     .240000000000D+01  .000000000000D+00 -.102445483208D-07  .700000000000D+01
     .352686000000D+06  .400000000000D+01
 8 09  7  2  3 59 28.0 -.209972262383D-03 -.147792889038D-11  .000000000000D+00
     .174000000000D+03 -.798750000000D+02  .355050503564D-08  .118506758015D+01
    -.408105552197D-05  .106849452714D-01  .881031155586D-05  .515364430618D+04
     .359968000000D+06  .391155481339D-07  .217973605336D+01  .266358256340D-06
     .989057022286D+00  .224656250000D+03  .299652921409D+01 -.754710008130D-08
     .130719730716D-09  .100000000000D+01  .153800000000D+04  .000000000000D+00
     .240000000000D+01  .000000000000D+00 -.372529029846D-08  .174000000000D+03
     .352806000000D+06  .400000000000D+01
 6 09  7  2  3 59 44.0  .179737340659D-03  .119371179608D-10  .000000000000D+00
     .140000000000D+02 -.140937500000D+02  .559951895673D-08 -.588801379152D+00
    -.869855284691D-06  .598411797546D-02  .674463808537D-05  .515369327736D+04
     .359984000000D+06 -.651925802231D-07 -.211758214719D+01 -.596046447754D-07
     .933611983818D+00  .237687500000D+03 -.132539281963D+01 -.854607026384D-08
    -.310727228751D-10  .100000000000D+01  .153800000000D+04  .000000000000D+00
     .240000000000D+01  .000000000000D+00 -.465661287308D-08  .140000000000D+02
     .352806000000D+06  .400000000000D+01
 9 09  7  2  3 59 44.0  .642403028905D-04  .204636307899D-11  .000000000000D+00
     .340000000000D+02 -.974375000000D+02  .394266422779D-08  .945910730259D+00
    -.523589551449D-05  .207041651011D-01  .846385955811D-05  .515363906288D+04
     .359984000000D+06 -.299885869026D-06  .208486575302D+01 -.171363353729D-06
     .976700214090D+00  .229500000000D+03  .148821726373D+01 -.811605235187D-08
     .682171272315D-10  .100000000000D+01  .153800000000D+04  .000000000000D+00
     .240000000000D+01  .000000000000D+00 -.558793544769D-08  .340000000000D+02
     .352806000000D+06  .400000000000D+01
17 09  7  2  3 59 44.0  .678286887705D-04  .227373675443D-11  .000000000000D+00
     .800000000000D+01 -.759375000000D+01  .496806408267D-08 -.165223874494D+01
    -.340864062309D-06  .455538684037D-02  .689737498760D-05  .515369441795D+04
     .359984000000D+06  .931322574615D-07 -.205331120106D+01  .428408384323D-07
     .959486608571D+00  .244906250000D+03 -.263245202806D+01 -.806212153401D-08
    -.560737642688D-10  .100000000000D+01  .153800000000D+04  .000000000000D+00
     .240000000000D+01  .000000000000D+00 -.102445483208D-07  .800000000000D+01
     .352806000000D+06  .400000000000D+01
19 09  7  2  3 59 44.0  .205398537219D-04 -.136424205266D-11  .000000000000D+00
     .700000000000D+01 -.781250000000D+01  .497199281774D-08 -.225886965908D+01
    -.396743416786D-06  .571894983295D-02  .732578337193D-05  .515361843872D+04
     .359984000000D+06 -.195577740669D-06 -.199734790777D+01 -.298023223877D-07
     .957160633194D+00  .239843750000D+03 -.335960768057D+00 -.804462080503D-08
    -.144291724615D-09  .100000000000D+01  .153800000000D+04  .000000000000D+00
     .240000000000D+01  .000000000000D+00 -.144354999065D-07  .700000000000D+01
     .352806000000D+06  .400000000000D+01
 1 09  7  2  4  0  0.0 -.697174109519D-04  .432009983342D-11  .000000000000D+00
     .700000000000D+02 -.169375000000D+02  .591917512883D-08 -.159567815829D+00
    -.873580574989D-06  .355875026435D-02  .823102891445D-05  .515374873924D+04
     .360000000000D+06  .167638063431D-07 -.312479726270D+01  .260770320892D-07
     .961553327070D+00  .226437500000D+03  .921041693449D+00 -.797711799327D-08
     .500020827875D-09  .100000000000D+01  .153800000000D+04  .000000000000D+00
     .240000000000D+01  .630000000000D+02 -.130385160446D-07  .700000000000D+02
     .352806000000D+06  .400000000000D+01
 2 09  7  2  4  0  0.0  .158308073878D-03  .147792889038D-11  .000000000000D+00
     .700000000000D+02  .532812500000D+02  .483805866742D-08 -.269164636757D+01
     .267103314400D-05  .905116263311D-02  .100620090961D-04  .515368002892D+04
     .360000000000D+06 -.191852450371D-06 -.103698423739D+01  .484287738800D-07
     .940896893069D+00  .174468750000D+03  .285495175622D+01 -.793604485384D-08
    -.457161899771D-09  .100000000000D+01  .153800000000D+04  .000000000000D+00
     .240000000000D+01  .000000000000D+00 -.172294676304D-07  .700000000000D+02
     .352806000000D+06  .400000000000D+01
 3 09  7  2  4  0  0.0  .414395704865D-03  .522959453519D-11  .000000000000D+00
     .184000000000D+03 -.147187500000D+02  .567916513145D-08 -.299590633575D+01
    -.974163413048D-06  .120125178946D-01  .643543899059D-05  .515363363266D+04
     .360000000000D+06  .596046447754D-07 -.218547718174D+01 -.284984707832D-06
     .926191245549D+00  .236937500000D+03  .909290743998D+00 -.833070415012D-08
    -.171435712414D-10  .100000000000D+01  .153800000000D+04  .000000000000D+00
     .240000000000D+01  .000000000000D+00 -.419095158577D-08  .184000000000D+03
     .352806000000D+06  .400000000000D+01
 4 09  7  2  4  0  0.0 -.157013069838D-03 -.162572177942D-10  .000000000000D+00
     .770000000000D+02  .537187500000D+02  .499377943953D-08  .184087582410D+00
     .283867120743D-05  .860688940156D-02  .925920903683D-05  .515376701736D+04
     .360000000000D+06  .353902578354D-07 -.101865205252D+01  .651925802231D-07
     .940112995731D+00  .186562500000D+03  .490107929660D+00 -.824998650220D-08
    -.468590947265D-09  .100000000000D+01  .153800000000D+04  .000000000000D+00
     .240000000000D+01  .000000000000D+00 -.605359673500D-08  .770000000000D+02
     .352806000000D+06  .400000000000D+01
 7 09  7  2  4  0  0.0  .159991905093D-04 -.795807864051D-12  .000000000000D+00
     .330000000000D+02 -.831250000000D+02  .405016870578D-08  .191583611806D+01
    -.436790287495D-05  .276777718682D-02  .836886465549D-05  .515366914368D+04
     .360000000000D+06 -.763684511185D-07  .211863447537D+01  .149011611938D-07
     .967817107799D+00  .221250000000D+03  .287912758930D+01 -.779853912617D-08
     .126433837905D-09  .100000000000D+01  .153800000000D+04  .000000000000D+00
     .240000000000D+01  .000000000000D+00 -.107102096081D-07  .330000000000D+02
     .352806000000D+06  .400000000000D+01
10 09  7  2  4  0  0.0 -.184122473001D-04 -.682121026330D-12  .000000000000D+00
     .850000000000D+02  .102593750000D+03  .448411535283D-08 -.171851308130D+01
     .531412661076D-05  .857030542102D-02  .501424074173D-05  .515363133049D+04
     .360000000000D+06  .838190317154D-07  .473392449210D-01 -.167638063431D-06
     .958148515440D+00  .283406250000D+03  .625846808323D+00 -.807890794752D-08
     .278583032673D-10  .100000000000D+01  .153800000000D+04  .000000000000D+00
     .240000000000D+01  .000000000000D+00 -.279396772385D-08  .850000000000D+02
     .352806000000D+06  .400000000000D+01
11 09  7  2  4  0  0.0 -.887643545866D-05 -.170530256582D-11  .000000000000D+00
     .780000000000D+02  .198437500000D+02  .632276336847D-08  .173499421105D+01
     .107660889626D-05  .945411494467D-02  .888481736183D-05  .515369058418D+04
     .360000000000D+06 -.257045030594D-06 -.123892405489D+01  .856816768646D-07
     .888973743565D+00  .172937500000D+03  .700910059535D+00 -.878215152615D-08
    -.388587614805D-09  .100000000000D+01  .153800000000D+04  .000000000000D+00
     .240000000000D+01  .000000000000D+00 -.116415321827D-07  .780000000000D+02
     .352806000000D+06  .400000000000D+01
